NORAD_CAT_ID,OBJECT_NAME,OBJECT_TYPE,EPOCH,MEAN_MOTION,ECCENTRICITY,INCLINATION,RA_OF_ASC_NODE,ARG_OF_PERICENTER,MEAN_ANOMALY,BSTAR,MEAN_MOTION_DOT,MEAN_MOTION_DDOT,TLE_LINE0,TLE_LINE1,TLE_LINE2,SEMIMAJOR_AXIS,PERIOD,APOGEE,PERIGEE,DECAYED
53841.0,STARLINK-4750,PAYLOAD,2023-11-17 03:32:53,15.08838719,7.13e-05,53.2165,121.0556,72.8159,287.2911,8.2664e-05,1.028e-05,0.0,0 STARLINK-4750,1 53841U 22114Z   23321.14784711  .00001028  00000-0  82664-4 0  9996,2 53841  53.2165 121.0556 0000713  72.8159 287.2911 15.08838719 65087,6917.884,95.438,540.243,539.256,0.0
53841.0,STARLINK-4750,PAYLOAD,2023-11-17 11:29:50,15.08827379,0.0001714,53.2197,119.5721,96.1115,264.0072,-2.111e-05,-6.24e-06,0.0,0 STARLINK-4750,1 53841U 22114Z   23321.47906111 -.00000624  00000-0 -21110-4 0  9994,2 53841  53.2197 119.5721 0001714  96.1115 264.0072 15.08827379 65138,6917.919,95.438,540.97,538.598,0.0
53841.0,STARLINK-4750,PAYLOAD,2023-11-17 17:51:23,15.08827986,0.0001735,53.2207,118.3817,93.9048,266.2143,-2.1445e-05,-6.29e-06,0.0,0 STARLINK-4750,1 53841U 22114Z   23321.74402290 -.00000629  00000-0 -21445-4 0  9999,2 53841  53.2207 118.3817 0001735  93.9048 266.2143 15.08827986 65717,6917.917,95.438,540.982,538.582,0.0
53841.0,STARLINK-4750,PAYLOAD,2023-11-18 20:52:57,15.08830548,0.0001502,53.2136,113.3228,92.8968,267.2196,-7.4763e-07,-3e-06,0.0,0 STARLINK-4750,1 53841U 22114Z   23322.87010696 -.00000300  00000-0 -74763-6 0  9998,2 53841  53.2136 113.3228 0001502  92.8968 267.2196 15.08830548 65885,6917.909,95.438,540.813,538.735,0.0
53841.0,STARLINK-4750,PAYLOAD,2023-11-19 03:14:29,15.08842124,0.0001713,53.2208,112.1364,91.3467,268.7722,-3.2757e-05,-8.09e-06,0.0,0 STARLINK-4750,1 53841U 22114Z   23323.13506112 -.00000809  00000-0 -32757-4 0  9990,2 53841  53.2208 112.1364 0001713  91.3467 268.7722 15.08842124 65384,6917.874,95.437,540.924,538.554,0.0
53841.0,STARLINK-4750,PAYLOAD,2023-11-19 19:08:20,15.08845523,0.0001564,53.2173,109.1607,86.6339,273.4832,0.00022742,3.334e-05,0.0,0 STARLINK-4750,1 53841U 22114Z   23323.79745618  .00003334  00000-0  22742-3 0  9994,2 53841  53.2173 109.1607 0001564  86.6339 273.4832 15.08845523 66023,6917.864,95.437,540.81,538.647,0.0
53841.0,STARLINK-4750,PAYLOAD,2023-11-20 09:26:48,15.08850521,0.0001635,53.2159,106.4836,86.6389,273.4791,9.7363e-05,1.262e-05,0.0,0 STARLINK-4750,1 53841U 22114Z   23324.39361730  .00001262  00000-0  97363-4 0  9990,2 53841  53.2159 106.4836 0001635  86.6389 273.4791 15.08850521 65572,6917.848,95.437,540.844,538.582,0.0
53841.0,STARLINK-4750,PAYLOAD,2023-11-20 14:12:57,15.08853428,0.0001655,53.2161,105.5926,86.8679,273.2502,0.00013107,1.799e-05,0.0,0 STARLINK-4750,1 53841U 22114Z   23324.59233314  .00001799  00000-0  13107-3 0  9996,2 53841  53.2161 105.5926 0001655  86.8679 273.2502 15.08853428 66142,6917.839,95.437,540.849,538.559,0.0
53841.0,STARLINK-4750,PAYLOAD,2023-11-20 18:59:06,15.08857,0.0001567,53.2171,104.7012,89.972,270.1452,0.00016456,2.333e-05,0.0,0 STARLINK-4750,1 53841U 22114Z   23324.79104837  .00002333  00000-0  16456-3 0  9990,2 53841  53.2171 104.7012 0001567  89.9720 270.1452 15.08857000 66176,6917.828,95.436,540.777,538.609,0.0
53841.0,STARLINK-4750,PAYLOAD,2023-11-21 09:17:35,15.0884475,0.0001623,53.2171,102.0251,93.4926,266.6252,5.2765e-05,5.52e-06,0.0,0 STARLINK-4750,1 53841U 22114Z   23325.38721714  .00000552  00000-0  52765-4 0  9990,2 53841  53.2171 102.0251 0001623  93.4926 266.6252 15.08844750 65729,6917.866,95.437,540.854,538.608,0.0
53841.0,STARLINK-4750,PAYLOAD,2023-11-21 12:28:21,15.08846162,0.0001614,53.2174,101.4308,93.0667,267.051,3.8406e-05,3.23e-06,0.0,0 STARLINK-4750,1 53841U 22114Z   23325.51969640  .00000323  00000-0  38406-4 0  9999,2 53841  53.2174 101.4308 0001614  93.0667 267.0510 15.08846162 66289,6917.862,95.437,540.843,538.61,0.0
53841.0,STARLINK-4750,PAYLOAD,2023-11-21 15:39:07,15.08848274,0.0001616,53.2176,100.8355,97.2897,262.8279,1.6962e-05,-1.8e-07,0.0,0 STARLINK-4750,1 53841U 22114Z   23325.65217458 -.00000018  00000-0  16962-4 0  9992,2 53841  53.2176 100.8355 0001616  97.2897 262.8279 15.08848274 66303,6917.855,95.437,540.838,538.602,0.0
53841.0,STARLINK-4750,PAYLOAD,2023-11-22 13:54:30,15.08857393,0.0001565,53.2181,96.672,99.0175,261.0995,8.4338e-05,1.055e-05,0.0,0 STARLINK-4750,1 53841U 22114Z   23326.57952274  .00001055  00000-0  84338-4 0  9999,2 53841  53.2181  96.6720 0001565  99.0175 261.0995 15.08857393 66442,6917.827,95.436,540.775,538.61,0.0
53841.0,STARLINK-4750,PAYLOAD,2023-11-22 15:29:54,15.08857197,0.0001589,53.2173,96.3747,98.1311,261.9861,0.00017997,2.579e-05,0.0,0 STARLINK-4750,1 53841U 22114Z   23326.64576420  .00002579  00000-0  17997-3 0  9990,2 53841  53.2173  96.3747 0001589  98.1311 261.9861 15.08857197 65911,6917.828,95.436,540.792,538.594,0.0
53841.0,STARLINK-4750,PAYLOAD,2023-11-23 12:09:55,15.08839107,0.0001417,53.2172,92.5085,106.8646,253.2502,9.1932e-05,1.175e-05,0.0,0 STARLINK-4750,1 53841U 22114Z   23327.50689343  .00001175  00000-0  91932-4 0  9998,2 53841  53.2172  92.5085 0001417 106.8646 253.2502 15.08839107 66043,6917.883,95.438,540.728,538.768,0.0
53841.0,STARLINK-4750,PAYLOAD,2023-11-23 13:45:18,15.08838843,0.0001447,53.2168,92.2109,109.12,250.9949,5.1564e-05,5.33e-06,0.0,0 STARLINK-4750,1 53841U 22114Z   23327.57313258  .00000533  00000-0  51564-4 0  9998,2 53841  53.2168  92.2109 0001447 109.1200 250.9949 15.08838843 66592,6917.884,95.438,540.75,538.748,0.0
53841.0,STARLINK-4750,PAYLOAD,2023-11-23 18:31:28,15.08837349,0.0001454,53.2172,91.318,112.8442,247.2703,1.9232e-05,1.8e-07,0.0,0 STARLINK-4750,1 53841U 22114Z   23327.77185311  .00000018  00000-0  19232-4 0  9991,2 53841  53.2172  91.3180 0001454 112.8442 247.2703 15.08837349 66624,6917.888,95.438,540.759,538.748,0.0
53841.0,STARLINK-4750,PAYLOAD,2023-11-24 12:00:43,15.08833718,0.0001384,53.217,88.0478,104.6579,255.4566,-5.7833e-05,-1.208e-05,0.0,0 STARLINK-4750,1 53841U 22114Z   23328.50049839 -.00001208  00000-0 -57833-4 0  9990,2 53841  53.2170  88.0478 0001384 104.6579 255.4566 15.08833718 66193,6917.9,95.438,540.722,538.807,0.0
53841.0,STARLINK-4750,PAYLOAD,2023-11-24 13:36:06,15.08838127,0.0001376,53.217,87.7506,101.502,258.6126,-5.2599e-05,-1.125e-05,0.0,0 STARLINK-4750,1 53841U 22114Z   23328.56673746 -.00001125  00000-0 -52599-4 0  9998,2 53841  53.2170  87.7506 0001376 101.5020 258.6126 15.08838127 66746,6917.886,95.438,540.703,538.799,0.0
53841.0,STARLINK-4750,PAYLOAD,2023-11-25 13:26:53,15.08845798,0.000157,53.2173,83.291,110.7323,249.3838,0.00030605,4.587e-05,0.0,0 STARLINK-4750,1 53841U 22114Z   23329.56033748  .00004587  00000-0  30605-3 0  9997,2 53841  53.2173  83.2910 0001570 110.7323 249.3838 15.08845798 66898,6917.863,95.437,540.814,538.642,0.0
53841.0,STARLINK-4750,PAYLOAD,2023-11-25 16:37:39,15.08860313,0.000143,53.217,82.6949,97.0371,263.0784,0.00060522,9.363e-05,0.0,0 STARLINK-4750,1 53841U 22114Z   23329.69281434  .00009363  00000-0  60522-3 0  9996,2 53841  53.2170  82.6949 0001430  97.0371 263.0784 15.08860313 66911,6917.818,95.436,540.673,538.694,0.0
53841.0,STARLINK-4750,PAYLOAD,2023-11-26 11:42:16,15.08857483,0.0001945,53.218,79.1273,82.0571,278.0642,0.0002879,4.299e-05,0.0,0 STARLINK-4750,1 53841U 22114Z   23330.48768920  .00004299  00000-0  28790-3 0  9999,2 53841  53.2180  79.1273 0001945  82.0571 278.0642 15.08857483 66496,6917.827,95.436,541.037,538.346,0.0
53841.0,STARLINK-4750,PAYLOAD,2023-11-26 13:17:39,15.08858609,0.0001535,53.2173,78.8296,94.7248,265.392,0.00029221,4.368e-05,0.0,0 STARLINK-4750,1 53841U 22114Z   23330.55392631  .00004368  00000-0  29221-3 0  9996,2 53841  53.2173  78.8296 0001535  94.7248 265.3920 15.08858609 67046,6917.824,95.436,540.75,538.627,0.0
53841.0,STARLINK-4750,PAYLOAD,2023-11-26 16:28:25,15.08866104,0.0001483,53.2175,78.2344,97.1295,262.9866,0.00041033,6.253e-05,0.0,0 STARLINK-4750,1 53841U 22114Z   23330.68640227  .00006253  00000-0  41033-3 0  9997,2 53841  53.2175  78.2344 0001483  97.1295 262.9866 15.08866104 67060,6917.801,95.436,540.692,538.64,0.0
53841.0,STARLINK-4750,PAYLOAD,2023-11-27 11:33:04,15.08822958,0.000153,53.2178,74.667,93.374,266.7428,-0.00044014,-7.283e-05,0.0,0 STARLINK-4750,1 53841U 22114Z   23331.48129889 -.00007283  00000-0 -44014-3 0  9990,2 53841  53.2178  74.6670 0001530  93.3740 266.7428 15.08822958 66649,6917.932,95.439,540.856,538.739,0.0
53841.0,STARLINK-4750,PAYLOAD,2023-11-27 14:43:50,15.08823013,0.0001637,53.2183,74.0745,74.4749,285.6423,-0.00029349,-4.954e-05,0.0,0 STARLINK-4750,1 53841U 22114Z   23331.61378238 -.00004954  00000-0 -29349-3 0  9995,2 53841  53.2183  74.0745 0001637  74.4749 285.6423 15.08823013 67200,6917.932,95.439,540.93,538.665,0.0
53841.0,STARLINK-4750,PAYLOAD,2023-11-27 16:19:13,15.08825694,0.000153,53.2182,73.7737,81.2367,278.8798,-0.00018395,-3.213e-05,0.0,0 STARLINK-4750,1 53841U 22114Z   23331.68002187 -.00003213  00000-0 -18395-3 0  9995,2 53841  53.2182  73.7737 0001530  81.2367 278.8798 15.08825694 67217,6917.924,95.438,540.848,538.731,0.0
53841.0,STARLINK-4750,PAYLOAD,2023-11-28 11:23:51,15.0884161,0.0001371,53.2179,70.2085,80.2025,279.9122,0.00067457,0.00010465,0.0,0 STARLINK-4750,1 53841U 22114Z   23332.47490601  .00010465  00000-0  67457-3 0  9993,2 53841  53.2179  70.2085 0001371  80.2025 279.9122 15.08841610 66795,6917.875,95.437,540.689,538.792,0.0
53841.0,STARLINK-4750,PAYLOAD,2023-11-28 12:59:15,15.08849527,0.0001665,53.2183,69.9108,68.301,291.816,0.00097712,0.00015301,0.0,0 STARLINK-4750,1 53841U 22114Z   23332.54114630  .00015301  00000-0  97712-3 0  9997,2 53841  53.2183  69.9108 0001665  68.3010 291.8160 15.08849527 67340,6917.851,95.437,540.868,538.564,0.0
53841.0,STARLINK-4750,PAYLOAD,2023-11-29 11:14:38,15.08858773,0.000144,53.2172,65.7503,108.3165,251.7984,0.00069397,0.00010779,0.0,0 STARLINK-4750,1 53841U 22114Z   23333.46850045  .00010779  00000-0  69397-3 0  9998,2 53841  53.2172  65.7503 0001440 108.3165 251.7984 15.08858773 67485,6917.823,95.436,540.684,538.692,0.0
